FENGYUN 1C DEB          
1 31165U 99025BHT 17346.52210931  .00000813  00000-0  22405-3 0  9993
2 31165  98.9411 189.8802 0102773  63.5744 327.5499 14.46780099564276
